CUTE-1 (CO-55)          
1 27844U 03031E   25122.52565260  .00000618  00000+0  28820-3 0  9992
2 27844  98.6773 131.2891 0008513 302.1790  57.8563 14.23964108133224
CUBESAT XI-IV (CO-57)   
1 27848U 03031J   25122.52664416  .00000524  00000+0  25077-3 0  9996
2 27848  98.6802 131.3242 0008687 321.2874  38.7681 14.23303207132954
CUBESAT XI-V            
1 28895U 05043F   25122.35681512  .00003619  00000+0  59881-3 0  9999
2 28895  98.2446 266.2442 0015673  70.9202 289.3700 14.70874679 41327
CUTE-1.7+APD II (CO-65) 
1 32785U 08021C   25122.42248096  .00009415  00000+0  68474-3 0  9993
2 32785  97.7826  93.3227 0009486 353.7484   6.3621 15.04007991923348
AAUSAT-II               
1 32788U 08021F   25122.56562679  .00635019  00000+0  26236-2 0  9991
2 32788  97.5960 119.8927 0009425 139.1799 221.0178 15.84259671927391
CANX-2                  
1 32790U 08021H   25122.58569157  .00008115  00000+0  63240-3 0  9992
2 32790  97.8207  92.0456 0013499 340.8159  19.2555 15.01399882923117
SEEDS II (CO-66)        
1 32791U 08021J   25122.60941222  .00022063  00000+0  10945-2 0  9994
2 32791  97.7270 101.8373 0001966 337.5263  22.5884 15.17731121924733
SWISSCUBE               
1 35932U 09051B   25122.62797893  .00002211  00000+0  45833-3 0  9991
2 35932  98.4336  18.1473 0008152  55.3307 304.8660 14.61235930829178
BEESAT-1                
1 35933U 09051C   25122.38180687  .00001867  00000+0  39337-3 0  9990
2 35933  98.4272  18.3181 0006687  67.7629 292.4279 14.60664525829196
ITUPSAT1                
1 35935U 09051E   25122.64158329  .00001653  00000+0  35864-3 0  9993
2 35935  98.4366  18.1542 0008959  73.3869 286.8313 14.59468891828836
TISAT 1                 
1 36799U 10035E   25122.18203770  .00022475  00000+0  11824-2 0  9990
2 36799  98.0601  33.8718 0002160 192.8449 167.2727 15.15663784805153
AEROCUBE 4.5A           
1 38767U 12048K   25122.61461067  .00035157  00000+0  97711-3 0  9997
2 38767  64.6493 351.7843 0100826 284.4460  74.5499 15.31660693309001
STRAND-1                
1 39090U 13009E   25122.44346465  .00000632  00000+0  22857-3 0  9999
2 39090  98.3828 308.1413 0009183  26.3907 333.7746 14.36786977638074
BRITE-AUSTRIA           
1 39091U 13009F   25122.50531916  .00000399  00000+0  15087-3 0  9991
2 39091  98.3885 307.4603 0010827  32.6237 327.5617 14.36289173638102
NEE-01 PEGASO           
1 39151U 13018B   25122.32419023  .00005573  00000+0  57422-3 0  9990
2 39151  98.0675 250.3363 0014633  77.9901 282.2956 14.90589762649440
POPACS 1                
1 39268U 13055D   25122.31125384  .00084930  62639-6  81580-3 0  9992
2 39268  80.9690 133.9353 0260230 115.3952 247.4471 15.34147668610223
POPACS 2                
1 39269U 13055E   25122.60269997  .00024845  00000+0  48744-3 0  9995
2 39269  80.9952 248.0747 0481987  56.2729 308.3446 14.74666065602375
POPACS 3                
1 39270U 13055F   25122.26404891  .00013014  00000+0  33525-3 0  9990
2 39270  81.0046 311.6262 0587394 233.3078 121.2774 14.46871777599644
ZACUBE-1 (TSHEPISOSAT)  
1 39417U 13066B   25122.60644717  .00007707  00000+0  67387-3 0  9991
2 39417  97.7769  79.8407 0044557 176.8326 183.3186 14.96265934619234
WNISAT-1                
1 39423U 13066H   25122.48118447  .00002124  00000+0  39858-3 0  9990
2 39423  97.6762 297.3346 0167073  85.4436 276.5827 14.57034398606900
TRITON-1                
1 39427U 13066M   25122.31245842  .00005229  00000+0  66445-3 0  9997
2 39427  97.8379  37.0612 0096113 129.9813 230.9888 14.78805837613494
GOMX-1                  
1 39430U 13066Q   25122.57702987  .00003142  00000+0  49469-3 0  9996
2 39430  97.6878 343.5675 0131761 314.5957  44.4556 14.67493249609835
CUBEBUG-2 (LO-74)       
1 39440U 13066AA  25122.59535940  .00008676  00000+0  88206-3 0  9991
2 39440  97.8475  67.4322 0060848 306.6365  52.9266 14.89643238615786
NEE-02 KRYSAOR          
1 39441U 13066AB  25122.29416702  .00005845  00000+0  67691-3 0  9993
2 39441  97.8535  61.2297 0068590 336.8213  22.9911 14.84175035615207
FUNCUBE-1 (AO-73)       
1 39444U 13066AE  25122.57504445  .00013025  00000+0  98592-3 0  9992
2 39444  97.7780  84.3645 0041920 153.4039 206.9348 15.01729534617884
UWE-3                   
1 39446U 13066AG  25122.59651737  .00007418  00000+0  70782-3 0  9993
2 39446  97.8210  73.7474 0051832 244.3027 115.2835 14.92595538616243
BRITE-CA1 (TORONTO)     
1 40020U 14033L   25122.63117209  .00002677  00000+0  41745-3 0  9993
2 40020  97.9199 255.8452 0081056 150.2933 210.2914 14.71521608581813
DUCHIFAT-1              
1 40021U 14033M   25122.27479079  .00039216  00000+0  14812-2 0  9993
2 40021  98.0979 133.3325 0011490  93.5707 266.6844 15.26836044592479
NANOSATC-BR1            
1 40024U 14033Q   25122.43614133  .00023071  00000+0  11563-2 0  9998
2 40024  98.0914 117.7432 0006130 144.5980 215.5660 15.17353725591424
QB50P1                  
1 40025U 14033R   25122.37752414  .00014078  00000+0  87222-3 0  9990
2 40025  98.0816 102.8703 0010634 173.8526 186.2834 15.09847957590878
QB50P2                  
1 40032U 14033Y   25122.55774946  .00011881  00000+0  77972-3 0  9992
2 40032  98.0419  92.2693 0010530 121.7708 238.4546 15.07775627590641
PERSEUS-M2              
1 40037U 14033AD  25122.58637762  .00003811  00000+0  36641-3 0  9996
2 40037  97.9538  61.6880 0011227 213.3269 146.7245 14.93584990589457
PERSEUS-M1              
1 40039U 14033AF  25122.37108463  .00004366  00000+0  41929-3 0  9997
2 40039  97.9282  56.5517 0010977 212.7923 147.2616 14.93557579589277
POLYITAN-1              
1 40042U 14033AJ  25122.40145551  .00025198  00000+0  12551-2 0  9998
2 40042  98.1031 110.0154 0012101 124.4517 235.7860 15.17503456590995
TIGRISAT                
1 40043U 14033AK  25122.40905924  .00003678  00000+0  45129-3 0  9994
2 40043  97.7316 278.9312 0050973 342.4852  17.4602 14.82777989584706
AEROCUBE 6A             
1 40045U 14033AM  25122.57337403  .00009243  00000+0  90529-3 0  9993
2 40045  97.6910 291.7609 0042198 307.0331  52.7031 14.91825333585276
AEROCUBE 6B             
1 40046U 14033AN  25122.39664209  .00011521  00000+0  10956-2 0  9998
2 40046  97.6883 290.6592 0040809 300.8786  58.8422 14.92975259585339
CANX-4                  
1 40055U 14034C   25122.55852592  .00001991  00000+0  26970-3 0  9995
2 40055  98.3670 336.7108 0011802 247.3342 112.6620 14.80123830583761
CANX-5                  
1 40056U 14034D   25122.56127241  .00001968  00000+0  26663-3 0  9996
2 40056  98.3672 336.7338 0011804 247.4091 112.5871 14.80137225574572
UKUBE-1                 
1 40074U 14037F   25122.60621175  .00015578  00000+0  11071-2 0  9997
2 40074  98.3923  81.6229 0004140  95.3185 264.8511 15.04785838586633
BRITE-PL2 (HEWELIUSZ)   
1 40119U 14049B   25122.33850525  .00003748  00000+0  37097-3 0  9996
2 40119  97.8860 227.5050 0015240  35.8835 324.3404 14.92390909580122
AEROCUBE 5C             
1 40965U 15058B   25122.37739704  .00004662  00000+0  39936-3 0  9995
2 40965  64.7672  97.5859 0169720 212.5306 146.5260 14.88290728304454
AEROCUBE 7              
1 40966U 15058C   25122.45891101  .00006543  00000+0  52055-3 0  9992
2 40966  64.7639  87.1519 0161744 212.4204 146.6894 14.91467646304611
FOX-1A (AO-85)          
1 40967U 15058D   25122.35532833  .00004685  00000+0  41105-3 0  9995
2 40967  64.7745 112.6666 0166181 207.7452 151.4721 14.87796434 52381
SINOD-D 1               
1 40968U 15058E   25122.33289577  .00006691  00000+0  54036-3 0  9994
2 40968  64.7750 101.2362 0156239 206.8004 152.4976 14.91504491 55292
SNAP-3 ALICE            
1 40970U 15058G   25122.43611646  .00040904  00000+0  17302-2 0  9993
2 40970  64.7687  28.9739 0095150 207.0451 152.5701 15.18892083 53876
LMRST-SAT               
1 40971U 15058H   25122.35505806  .00004541  00000+0  39878-3 0  9995
2 40971  64.7747 108.3543 0168402 209.1805 149.9819 14.87558812 52386
SNAP-3 EDDIE            
1 40972U 15058J   25122.23062347  .00037549  00000+0  15526-2 0  9998
2 40972  64.7592  22.3148 0100549 208.6607 150.8972 15.19205301 55958
PROPCUBE 3              
1 40973U 15058K   25122.42624935  .00005822  00000+0  47600-3 0  9995
2 40973  64.7688  92.2128 0163216 210.9306 148.2116 14.90438581 53507
BISONSAT                
1 40974U 15058L   25122.27491799  .00017081  00000+0  10066-2 0  9994
2 40974  64.7647  50.4807 0127555 209.3879 150.0028 15.05046586 53551
SNAP-3 JIMI             
1 40975U 15058M   25122.57465221  .00008987  00000+0  64609-3 0  9997
2 40975  64.7674  72.9685 0148342 210.1128 149.1399 14.96297838 52667
PROPCUBE 1 (FLORA)      
1 40976U 15058N   25122.48266829  .00004629  00000+0  42117-3 0  9990
2 40976  64.7732 125.2852 0167892 210.7716 148.3470 14.86266894 55167
SINOD-D 3               
1 40977U 15058P   25122.41561329  .00006373  00000+0  53550-3 0  9998
2 40977  64.7718 114.5223 0158008 210.1737 149.0205 14.89910221 53470
HORYU-4                 
1 41340U 16012D   25122.13971052  .00039593  00000+0  11187-2 0  9990
2 41340  30.9975  30.1174 0007674   7.7860 352.2903 15.35100832506873
RAVAN                   
1 41849U 16067B   25122.57577038  .00022799  00000+0  80650-3 0  9990
2 41849  98.0484 328.4718 0009425  17.7038 342.4527 15.29138089464535
CELTEE 1                
1 41850U 16067C   25121.97815244  .00008218  00000+0  45452-3 0  9990
2 41850  98.1089 316.0561 0001575 143.3808 216.7530 15.14157914463546
OPTICUBE 04             
1 41851U 16067D   25122.44543270  .00005437  00000+0  36609-3 0  9995
2 41851  98.0944 308.2915 0017842  66.8392 293.4711 15.07033115463252
AEROCUBE 8D             
1 41852U 16067E   25122.47487444  .00013924  00000+0  70636-3 0  9997
2 41852  98.1128 317.5537 0005450 107.1448 253.0380 15.17051547463652
AEROCUBE 8C             
1 41853U 16067F   25122.48368075  .00014372  00000+0  72632-3 0  9993
2 41853  98.0967 315.4264 0006785  45.4857 314.6928 15.17169465463647
